GOES 1 [-]              
1 08366U 75100A   08112.75027621  .00000032  00000-0  10000-3 0  7221
2 08366  14.4588 351.1599 0002976 248.3019 111.6207  1.00268208118723
GOES 2 [-]              
1 10061U 77048A   08110.99722370 -.00000309  00000-0  10000-3 0  3769
2 10061  14.5721 359.5596 0017806 242.1713 117.6002  0.99401905 57594
GOES 3 [P]              
1 10953U 78062A   08111.72319643 -.00000108  00000-0  10000-3 0   925
2 10953  14.2055   3.4178 0001865 321.7424  38.1982  1.00279804 62430
GOES 4 [-]              
1 11964U 80074A   08111.55529960 -.00000264  00000-0  10000-3 0  9674
2 11964  14.4814   7.1136 0035169 283.5370  76.0167  0.99231792 61832
GOES 5 [-]              
1 12472U 81049A   08112.79348436 -.00000033  00000-0  10000-3 0   222
2 12472  13.2562  17.6794 0002407 190.3333 169.5995  1.00335677 56485
GOES 6 [-]              
1 14050U 83041A   08109.85778024  .00000054  00000-0  10000-3 0   258
2 14050  12.8151  22.8591 0001252 304.0490  55.8764  1.00288106149552
GOES 7 [-]              
1 17561U 87022A   08112.39257483  .00000061  00000-0  10000-3 0  4011
2 17561  11.3126  41.2615 0003467 224.2212 269.4231  1.00249626 60687
GOES 8 [-]              
1 23051U 94022A   08111.95008348  .00000058  00000-0  10000-3 0  3010
2 23051   4.6730  79.7675 0006160 168.9099 191.1363  0.98903369 58542
GOES 9 [P]              
1 23581U 95025A   08111.77486162 -.00000166  00000-0  10000-3 0  5480
2 23581   4.2379  75.8290 0005935 271.5974  88.3602  0.98801267 47250
GOES 10 [+]             
1 24786U 97019A   08112.29567225 -.00000278  00000-0  10000-3 0  3696
2 24786   2.5719  80.0275 0001710 321.1342 215.1347  1.00278879 40278
GOES 11 [+]             
1 26352U 00022A   08112.60649236  .00000091  00000-0  10000-3 0  7835
2 26352   0.3037  87.2286 0000984 239.5846 326.7779  1.00283522 29177
GOES 12 [+]             
1 26871U 01031A   08112.36267969 -.00000246  00000-0  00000+0 0  5290
2 26871   0.1570 259.3849 0003995 166.7002 199.2881  1.00284764 24777
GOES 13 [S]             
1 29155U 06018A   08112.41763025 -.00000083  00000-0  10000-3 0  4033
2 29155   0.1751  80.1697 0001299 239.8270 294.9898  1.00272075  7023
